STARLINK-2022           
1 47643U 21012Z   24204.42161275 -.00000515  00000+0 -15683-4 0  9999
2 47643  53.0530 203.8791 0001443  90.6647 269.4507 15.06395395190544
